STARLINK-34914          
1 65203U 25176F   25289.94888094  .00037663  00000+0  94627-3 0  9998
2 65203  53.1585 101.7739 0001159 122.3314 237.7803 15.39640267 11099
STARLINK-34787          
1 65204U 25176G   25290.17603697  .00081693  00000+0  20293-2 0  9999
2 65204  53.1578 100.3464 0001172  91.6007 268.5132 15.39637333 11136
STARLINK-34796          
1 65205U 25176H   25289.94423962  .00061795  00000+0  15422-2 0  9997
2 65205  53.1586 101.7448 0000771 108.8340 251.2749 15.39624076 11096
STARLINK-34763          
1 65206U 25176J   25290.06477620  .00071463  00000+0  17771-2 0  9995
2 65206  53.1583 101.0753 0001531  49.8110 310.3028 15.39667235 11114
STARLINK-34901          
1 65207U 25176K   25290.12505573  .00050151  00000+0  12545-2 0  9997
2 65207  53.1577 100.7398 0001339  86.1454 273.9704 15.39643872 11127
STARLINK-34841          
1 65208U 25176L   25290.09695766  .00128123  00000+0  31557-2 0  9997
2 65208  53.1580 101.2789 0001691  65.9637 294.1544 15.39656436 11117
STARLINK-34976          
1 65209U 25176M   25290.17139832  .00072965  00000+0  18157-2 0  9997
2 65209  53.1576 100.3166 0001800  67.4912 292.6283 15.39635746 11133
STARLINK-34941          
1 65210U 25176N   25289.96247343  .00055892  00000+0  13950-2 0  9997
2 65210  53.1581 101.8596 0001050 101.4677 258.6445 15.39664292 11093
STARLINK-34847          
1 65211U 25176P   25290.17117181  .00082813  00000+0  20588-2 0  9997
2 65211  53.1577 101.0283 0001795  62.4780 297.6407 15.39606408 11121
STARLINK-34897          
1 65212U 25176Q   25289.97177475  .00057971  00000+0  14486-2 0  9993
2 65212  53.1582 101.9172 0001151  84.4282 275.6854 15.39612237 11096
STARLINK-34907          
1 65213U 25176R   25290.11576986  .00058735  00000+0  14654-2 0  9998
2 65213  53.1580 100.6794 0001742  57.7604 302.3569 15.39654909 11125
STARLINK-34511          
1 65214U 25176S   25290.01844317  .00091601  00000+0  22686-2 0  9997
2 65214  53.1593 101.4949 0001126  60.3657 299.7460 15.39673959 11041
STARLINK-33913          
1 65215U 25176T   25290.17388894  .00031839  00000+0  10817-2 0  9998
2 65215  53.1575 101.7500 0001214  49.6515 310.4592 15.30225088 11111
STARLINK-34302          
1 65216U 25176U   25289.96747641  .00067557  00000+0  16812-2 0  9990
2 65216  53.1583 101.8914 0001333  61.4132 298.7007 15.39670341 11091
STARLINK-34871          
1 65217U 25176V   25290.02772434  .00064018  00000+0  15944-2 0  9992
2 65217  53.1583 101.5540 0001260  75.7333 284.3812 15.39669814 11104
STARLINK-34833          
1 65218U 25176W   25290.08302184  .00055118  00000+0  13757-2 0  9991
2 65218  53.1589 101.1867 0002030  60.9604 299.1604 15.39670045 11114
