[{"OBJECT_NAME":"STARLINK-34914","OBJECT_ID":"2025-176F","EPOCH":"2025-10-16T22:46:23.313216","MEAN_MOTION":15.39640267,"ECCENTRICITY":0.0001159,"INCLINATION":53.1585,"RA_OF_ASC_NODE":101.7739,"ARG_OF_PERICENTER":122.3314,"MEAN_ANOMALY":237.7803,"EPHEMERIS_TYPE":0,"CLASSIFICATION_TYPE":"U","NORAD_CAT_ID":65203,"ELEMENT_SET_NO":999,"REV_AT_EPOCH":1109,"BSTAR":0.00094627,"MEAN_MOTION_DOT":0.00037663,"MEAN_MOTION_DDOT":0},{"OBJECT_NAME":"STARLINK-34787","OBJECT_ID":"2025-176G","EPOCH":"2025-10-17T04:13:29.594208","MEAN_MOTION":15.39637333,"ECCENTRICITY":0.0001172,"INCLINATION":53.1578,"RA_OF_ASC_NODE":100.3464,"ARG_OF_PERICENTER":91.6007,"MEAN_ANOMALY":268.5132,"EPHEMERIS_TYPE":0,"CLASSIFICATION_TYPE":"U","NORAD_CAT_ID":65204,"ELEMENT_SET_NO":999,"REV_AT_EPOCH":1113,"BSTAR":0.0020293,"MEAN_MOTION_DOT":0.00081693,"MEAN_MOTION_DDOT":0},{"OBJECT_NAME":"STARLINK-34796","OBJECT_ID":"2025-176H","EPOCH":"2025-10-16T22:39:42.303168","MEAN_MOTION":15.39624076,"ECCENTRICITY":7.71e-5,"INCLINATION":53.1586,"RA_OF_ASC_NODE":101.7448,"ARG_OF_PERICENTER":108.834,"MEAN_ANOMALY":251.2749,"EPHEMERIS_TYPE":0,"CLASSIFICATION_TYPE":"U","NORAD_CAT_ID":65205,"ELEMENT_SET_NO":999,"REV_AT_EPOCH":1109,"BSTAR":0.0015422,"MEAN_MOTION_DOT":0.00061795,"MEAN_MOTION_DDOT":0},{"OBJECT_NAME":"STARLINK-34763","OBJECT_ID":"2025-176J","EPOCH":"2025-10-17T01:33:16.663680","MEAN_MOTION":15.39667235,"ECCENTRICITY":0.0001531,"INCLINATION":53.1583,"RA_OF_ASC_NODE":101.0753,"ARG_OF_PERICENTER":49.811,"MEAN_ANOMALY":310.3028,"EPHEMERIS_TYPE":0,"CLASSIFICATION_TYPE":"U","NORAD_CAT_ID":65206,"ELEMENT_SET_NO":999,"REV_AT_EPOCH":1111,"BSTAR":0.0017771,"MEAN_MOTION_DOT":0.00071463,"MEAN_MOTION_DDOT":0},{"OBJECT_NAME":"STARLINK-34901","OBJECT_ID":"2025-176K","EPOCH":"2025-10-17T03:00:04.815072","MEAN_MOTION":15.39643872,"ECCENTRICITY":0.0001339,"INCLINATION":53.1577,"RA_OF_ASC_NODE":100.7398,"ARG_OF_PERICENTER":86.1454,"MEAN_ANOMALY":273.9704,"EPHEMERIS_TYPE":0,"CLASSIFICATION_TYPE":"U","NORAD_CAT_ID":65207,"ELEMENT_SET_NO":999,"REV_AT_EPOCH":1112,"BSTAR":0.0012545,"MEAN_MOTION_DOT":0.00050151,"MEAN_MOTION_DDOT":0},{"OBJECT_NAME":"STARLINK-34841","OBJECT_ID":"2025-176L","EPOCH":"2025-10-17T02:19:37.141824","MEAN_MOTION":15.39656436,"ECCENTRICITY":0.0001691,"INCLINATION":53.158,"RA_OF_ASC_NODE":101.2789,"ARG_OF_PERICENTER":65.9637,"MEAN_ANOMALY":294.1544,"EPHEMERIS_TYPE":0,"CLASSIFICATION_TYPE":"U","NORAD_CAT_ID":65208,"ELEMENT_SET_NO":999,"REV_AT_EPOCH":1111,"BSTAR":0.0031557,"MEAN_MOTION_DOT":0.00128123,"MEAN_MOTION_DDOT":0},{"OBJECT_NAME":"STARLINK-34976","OBJECT_ID":"2025-176M","EPOCH":"2025-10-17T04:06:48.814848","MEAN_MOTION":15.39635746,"ECCENTRICITY":0.00018,"INCLINATION":53.1576,"RA_OF_ASC_NODE":100.3166,"ARG_OF_PERICENTER":67.4912,"MEAN_ANOMALY":292.6283,"EPHEMERIS_TYPE":0,"CLASSIFICATION_TYPE":"U","NORAD_CAT_ID":65209,"ELEMENT_SET_NO":999,"REV_AT_EPOCH":1113,"BSTAR":0.0018157,"MEAN_MOTION_DOT":0.00072965,"MEAN_MOTION_DDOT":0},{"OBJECT_NAME":"STARLINK-34941","OBJECT_ID":"2025-176N","EPOCH":"2025-10-16T23:05:57.704352","MEAN_MOTION":15.39664292,"ECCENTRICITY":0.000105,"INCLINATION":53.1581,"RA_OF_ASC_NODE":101.8596,"ARG_OF_PERICENTER":101.4677,"MEAN_ANOMALY":258.6445,"EPHEMERIS_TYPE":0,"CLASSIFICATION_TYPE":"U","NORAD_CAT_ID":65210,"ELEMENT_SET_NO":999,"REV_AT_EPOCH":1109,"BSTAR":0.001395,"MEAN_MOTION_DOT":0.00055892,"MEAN_MOTION_DDOT":0},{"OBJECT_NAME":"STARLINK-34847","OBJECT_ID":"2025-176P","EPOCH":"2025-10-17T04:06:29.244384","MEAN_MOTION":15.39606408,"ECCENTRICITY":0.0001795,"INCLINATION":53.1577,"RA_OF_ASC_NODE":101.0283,"ARG_OF_PERICENTER":62.478,"MEAN_ANOMALY":297.6407,"EPHEMERIS_TYPE":0,"CLASSIFICATION_TYPE":"U","NORAD_CAT_ID":65211,"ELEMENT_SET_NO":999,"REV_AT_EPOCH":1112,"BSTAR":0.0020588,"MEAN_MOTION_DOT":0.00082813,"MEAN_MOTION_DDOT":0},{"OBJECT_NAME":"STARLINK-34897","OBJECT_ID":"2025-176Q","EPOCH":"2025-10-16T23:19:21.338400","MEAN_MOTION":15.39612237,"ECCENTRICITY":0.0001151,"INCLINATION":53.1582,"RA_OF_ASC_NODE":101.9172,"ARG_OF_PERICENTER":84.4282,"MEAN_ANOMALY":275.6854,"EPHEMERIS_TYPE":0,"CLASSIFICATION_TYPE":"U","NORAD_CAT_ID":65212,"ELEMENT_SET_NO":999,"REV_AT_EPOCH":1109,"BSTAR":0.0014486,"MEAN_MOTION_DOT":0.00057971,"MEAN_MOTION_DDOT":0},{"OBJECT_NAME":"STARLINK-34907","OBJECT_ID":"2025-176R","EPOCH":"2025-10-17T02:46:42.515904","MEAN_MOTION":15.39654909,"ECCENTRICITY":0.0001742,"INCLINATION":53.158,"RA_OF_ASC_NODE":100.6794,"ARG_OF_PERICENTER":57.7604,"MEAN_ANOMALY":302.3569,"EPHEMERIS_TYPE":0,"CLASSIFICATION_TYPE":"U","NORAD_CAT_ID":65213,"ELEMENT_SET_NO":999,"REV_AT_EPOCH":1112,"BSTAR":0.0014654,"MEAN_MOTION_DOT":0.00058735,"MEAN_MOTION_DDOT":0},{"OBJECT_NAME":"STARLINK-34511","OBJECT_ID":"2025-176S","EPOCH":"2025-10-17T00:26:33.489888","MEAN_MOTION":15.39673959,"ECCENTRICITY":0.0001126,"INCLINATION":53.1593,"RA_OF_ASC_NODE":101.4949,"ARG_OF_PERICENTER":60.3657,"MEAN_ANOMALY":299.746,"EPHEMERIS_TYPE":0,"CLASSIFICATION_TYPE":"U","NORAD_CAT_ID":65214,"ELEMENT_SET_NO":999,"REV_AT_EPOCH":1104,"BSTAR":0.0022686,"MEAN_MOTION_DOT":0.00091601,"MEAN_MOTION_DDOT":0},{"OBJECT_NAME":"STARLINK-33913","OBJECT_ID":"2025-176T","EPOCH":"2025-10-17T04:10:24.004416","MEAN_MOTION":15.30225088,"ECCENTRICITY":0.0001214,"INCLINATION":53.1575,"RA_OF_ASC_NODE":101.75,"ARG_OF_PERICENTER":49.6515,"MEAN_ANOMALY":310.4592,"EPHEMERIS_TYPE":0,"CLASSIFICATION_TYPE":"U","NORAD_CAT_ID":65215,"ELEMENT_SET_NO":999,"REV_AT_EPOCH":1111,"BSTAR":0.0010817,"MEAN_MOTION_DOT":0.00031839,"MEAN_MOTION_DDOT":0},{"OBJECT_NAME":"STARLINK-34302","OBJECT_ID":"2025-176U","EPOCH":"2025-10-16T23:13:09.961824","MEAN_MOTION":15.39670341,"ECCENTRICITY":0.0001333,"INCLINATION":53.1583,"RA_OF_ASC_NODE":101.8914,"ARG_OF_PERICENTER":61.4132,"MEAN_ANOMALY":298.7007,"EPHEMERIS_TYPE":0,"CLASSIFICATION_TYPE":"U","NORAD_CAT_ID":65216,"ELEMENT_SET_NO":999,"REV_AT_EPOCH":1109,"BSTAR":0.0016812,"MEAN_MOTION_DOT":0.00067557,"MEAN_MOTION_DDOT":0},{"OBJECT_NAME":"STARLINK-34871","OBJECT_ID":"2025-176V","EPOCH":"2025-10-17T00:39:55.382976","MEAN_MOTION":15.39669814,"ECCENTRICITY":0.000126,"INCLINATION":53.1583,"RA_OF_ASC_NODE":101.554,"ARG_OF_PERICENTER":75.7333,"MEAN_ANOMALY":284.3812,"EPHEMERIS_TYPE":0,"CLASSIFICATION_TYPE":"U","NORAD_CAT_ID":65217,"ELEMENT_SET_NO":999,"REV_AT_EPOCH":1110,"BSTAR":0.0015944,"MEAN_MOTION_DOT":0.00064018,"MEAN_MOTION_DDOT":0},{"OBJECT_NAME":"STARLINK-34833","OBJECT_ID":"2025-176W","EPOCH":"2025-10-17T01:59:33.086976","MEAN_MOTION":15.39670045,"ECCENTRICITY":0.000203,"INCLINATION":53.1589,"RA_OF_ASC_NODE":101.1867,"ARG_OF_PERICENTER":60.9604,"MEAN_ANOMALY":299.1604,"EPHEMERIS_TYPE":0,"CLASSIFICATION_TYPE":"U","NORAD_CAT_ID":65218,"ELEMENT_SET_NO":999,"REV_AT_EPOCH":1111,"BSTAR":0.0013757,"MEAN_MOTION_DOT":0.00055118,"MEAN_MOTION_DDOT":0}]
